{
  "norad_id": 68705,
  "name": "STARLINK-35369",
  "history": [
    {
      "epoch": "2026-04-23T14:05:58.104384Z",
      "apogee_km": 319.0485036741211,
      "perigee_km": 317.9556121798678,
      "latitude_deg": 3.5851972770915433e-06,
      "longitude_deg": 132.75903481357696,
      "height_km": 319.3190977463057,
      "semi_major_axis_km": 6696.639057926995,
      "eccentricity": 8.16e-05,
      "inclination_deg": 53.1603,
      "raan_deg": 195.8837,
      "arg_perigee_deg": 79.1719,
      "mean_anomaly_deg": 280.9397,
      "mean_motion_rev_day": 15.84227051
    }
  ]
}