STARLINK-35369          
1 68705U 26081G   26113.58747806 -.00489226  00000+0 -22351-2 0  9998
2 68705  53.1603 195.8837 0000816  79.1719 280.9397 15.84227051  1471
